{
  "type": "FeatureCollection",
  "features": [
    {
      "type": "Feature",
      "properties": {
        "norad_id": 66354,
        "name": "STARLINK-35895",
        "group": "last-30-days",
        "lat": -35.89890352588175,
        "lon": -86.47190776748432,
        "alt_km": 423.58992894805306,
        "timestamp": "2025-12-06T14:35:35.908335+00:00",
        "meta_object_name": "STARLINK-35895",
        "meta_object_id": "2025-254G",
        "meta_epoch": "2025-12-06T08:00:01.999872",
        "meta_mean_motion": 15.49358729,
        "meta_eccentricity": 0.00013596,
        "meta_inclination": 53.1597,
        "meta_ra_of_asc_node": 307.709,
        "meta_arg_of_pericenter": 84.4738,
        "meta_mean_anomaly": 135.4646,
        "meta_ephemeris_type": 0,
        "meta_classification_type": "U",
        "meta_norad_cat_id": 66354,
        "meta_element_set_no": 999,
        "meta_rev_at_epoch": 589,
        "meta_bstar": -0.0021241828,
        "meta_mean_motion_dot": -0.00117042,
        "meta_mean_motion_ddot": 0,
        "tle_line1": "1 66354U 25254G   25340.33335648 -.00117042  00000+0 -21242-2 0  9990",
        "tle_line2": "2 66354  53.1597 307.7090 0001359  84.4738 135.4646 15.49358729  5898"
      },
      "geometry": {
        "type": "Point",
        "coordinates": [
          -86.47190776748432,
          -35.89890352588175
        ]
      }
    },
    {
      "type": "Feature",
      "properties": {
        "norad_id": 66355,
        "name": "STARLINK-35861",
        "group": "last-30-days",
        "lat": -17.200560594486653,
        "lon": 139.3132259212373,
        "alt_km": 421.7941683985946,
        "timestamp": "2025-12-06T14:35:35.908345+00:00",
        "meta_object_name": "STARLINK-35861",
        "meta_object_id": "2025-254H",
        "meta_epoch": "2025-12-06T08:00:01.999872",
        "meta_mean_motion": 15.49978236,
        "meta_eccentricity": 9.21e-05,
        "meta_inclination": 53.1604,
        "meta_ra_of_asc_node": 307.2081,
        "meta_arg_of_pericenter": 64.0479,
        "meta_mean_anomaly": 44.1619,
        "meta_ephemeris_type": 0,
        "meta_classification_type": "U",
        "meta_norad_cat_id": 66355,
        "meta_element_set_no": 999,
        "meta_rev_at_epoch": 589,
        "meta_bstar": -0.01877695,
        "meta_mean_motion_dot": -0.00978227,
        "meta_mean_motion_ddot": 0,
        "tle_line1": "1 66355U 25254H   25340.33335648 -.00978227  00000+0 -18777-1 0  9999",
        "tle_line2": "2 66355  53.1604 307.2081 0000921  64.0479  44.1619 15.49978236  5890"
      },
      "geometry": {
        "type": "Point",
        "coordinates": [
          139.3132259212373,
          -17.200560594486653
        ]
      }
    },
    {
      "type": "Feature",
      "properties": {
        "norad_id": 66356,
        "name": "STARLINK-35851",
        "group": "last-30-days",
        "lat": -18.685993963865307,
        "lon": 140.57718084172535,
        "alt_km": 421.9160964561761,
        "timestamp": "2025-12-06T14:35:35.908355+00:00",
        "meta_object_name": "STARLINK-35851",
        "meta_object_id": "2025-254J",
        "meta_epoch": "2025-12-06T08:00:01.999872",
        "meta_mean_motion": 15.49978692,
        "meta_eccentricity": 8.828e-05,
        "meta_inclination": 53.1605,
        "meta_ra_of_asc_node": 307.2036,
        "meta_arg_of_pericenter": 63.7317,
        "meta_mean_anomaly": 46.3922,
        "meta_ephemeris_type": 0,
        "meta_classification_type": "U",
        "meta_norad_cat_id": 66356,
        "meta_element_set_no": 999,
        "meta_rev_at_epoch": 589,
        "meta_bstar": -0.018711051,
        "meta_mean_motion_dot": -0.00975087,
        "meta_mean_motion_ddot": 0,
        "tle_line1": "1 66356U 25254J   25340.33335648 -.00975087  00000+0 -18711-1 0  9999",
        "tle_line2": "2 66356  53.1605 307.2036 0000882  63.7317  46.3922 15.49978692  5892"
      },
      "geometry": {
        "type": "Point",
        "coordinates": [
          140.57718084172535,
          -18.685993963865307
        ]
      }
    },
    {
      "type": "Feature",
      "properties": {
        "norad_id": 66357,
        "name": "STARLINK-35817",
        "group": "last-30-days",
        "lat": -20.165788580631983,
        "lon": 141.8666522331919,
        "alt_km": 422.02340592305427,
        "timestamp": "2025-12-06T14:35:35.908365+00:00",
        "meta_object_name": "STARLINK-35817",
        "meta_object_id": "2025-254K",
        "meta_epoch": "2025-12-06T08:00:01.999872",
        "meta_mean_motion": 15.49979521,
        "meta_eccentricity": 8.895e-05,
        "meta_inclination": 53.1605,
        "meta_ra_of_asc_node": 307.1995,
        "meta_arg_of_pericenter": 71.0968,
        "meta_mean_anomaly": 40.9462,
        "meta_ephemeris_type": 0,
        "meta_classification_type": "U",
        "meta_norad_cat_id": 66357,
        "meta_element_set_no": 999,
        "meta_rev_at_epoch": 589,
        "meta_bstar": -0.018827824,
        "meta_mean_motion_dot": -0.00980689,
        "meta_mean_motion_ddot": 0,
        "tle_line1": "1 66357U 25254K   25340.33335648 -.00980689  00000+0 -18828-1 0  9993",
        "tle_line2": "2 66357  53.1605 307.1995 0000889  71.0968  40.9462 15.49979521  5898"
      },
      "geometry": {
        "type": "Point",
        "coordinates": [
          141.8666522331919,
          -20.165788580631983
        ]
      }
    },
    {
      "type": "Feature",
      "properties": {
        "norad_id": 66358,
        "name": "STARLINK-35807",
        "group": "last-30-days",
        "lat": -21.633361962156155,
        "lon": 143.17816096347389,
        "alt_km": 422.1934894861579,
        "timestamp": "2025-12-06T14:35:35.908376+00:00",
        "meta_object_name": "STARLINK-35807",
        "meta_object_id": "2025-254L",
        "meta_epoch": "2025-12-06T08:00:01.999872",
        "meta_mean_motion": 15.49981504,
        "meta_eccentricity": 9.354e-05,
        "meta_inclination": 53.1605,
        "meta_ra_of_asc_node": 307.1951,
        "meta_arg_of_pericenter": 68.8823,
        "meta_mean_anomaly": 45.0751,
        "meta_ephemeris_type": 0,
        "meta_classification_type": "U",
        "meta_norad_cat_id": 66358,
        "meta_element_set_no": 999,
        "meta_rev_at_epoch": 589,
        "meta_bstar": -0.018851894,
        "meta_mean_motion_dot": -0.00981911,
        "meta_mean_motion_ddot": 0,
        "tle_line1": "1 66358U 25254L   25340.33335648 -.00981911  00000+0 -18852-1 0  9990",
        "tle_line2": "2 66358  53.1605 307.1951 0000935  68.8823  45.0751 15.49981504  5898"
      },
      "geometry": {
        "type": "Point",
        "coordinates": [
          143.17816096347389,
          -21.633361962156155
        ]
      }
    },
    {
      "type": "Feature",
      "properties": {
        "norad_id": 66359,
        "name": "STARLINK-35805",
        "group": "last-30-days",
        "lat": -23.10022497094134,
        "lon": 144.52782257549586,
        "alt_km": 422.2308253334859,
        "timestamp": "2025-12-06T14:35:35.908386+00:00",
        "meta_object_name": "STARLINK-35805",
        "meta_object_id": "2025-254M",
        "meta_epoch": "2025-12-06T08:00:01.999872",
        "meta_mean_motion": 15.49992953,
        "meta_eccentricity": 0.00012492,
        "meta_inclination": 53.1603,
        "meta_ra_of_asc_node": 307.1926,
        "meta_arg_of_pericenter": 84.0284,
        "meta_mean_anomaly": 31.8426,
        "meta_ephemeris_type": 0,
        "meta_classification_type": "U",
        "meta_norad_cat_id": 66359,
        "meta_element_set_no": 999,
        "meta_rev_at_epoch": 586,
        "meta_bstar": -0.018966127,
        "meta_mean_motion_dot": -0.00987798,
        "meta_mean_motion_ddot": 0,
        "tle_line1": "1 66359U 25254M   25340.33335648 -.00987798  00000+0 -18966-1 0  9996",
        "tle_line2": "2 66359  53.1603 307.1926 0001249  84.0284  31.8426 15.49992953  5868"
      },
      "geometry": {
        "type": "Point",
        "coordinates": [
          144.52782257549586,
          -23.10022497094134
        ]
      }
    },
    {
      "type": "Feature",
      "properties": {
        "norad_id": 66360,
        "name": "STARLINK-35823",
        "group": "last-30-days",
        "lat": -25.977622881304445,
        "lon": 147.29490343740125,
        "alt_km": 422.5214451110278,
        "timestamp": "2025-12-06T14:35:35.908396+00:00",
        "meta_object_name": "STARLINK-35823",
        "meta_object_id": "2025-254N",
        "meta_epoch": "2025-12-06T08:00:01.999872",
        "meta_mean_motion": 15.49984171,
        "meta_eccentricity": 0.00012345,
        "meta_inclination": 53.1604,
        "meta_ra_of_asc_node": 307.1837,
        "meta_arg_of_pericenter": 81.1292,
        "meta_mean_anomaly": 38.5782,
        "meta_ephemeris_type": 0,
        "meta_classification_type": "U",
        "meta_norad_cat_id": 66360,
        "meta_element_set_no": 999,
        "meta_rev_at_epoch": 589,
        "meta_bstar": -0.018662232,
        "meta_mean_motion_dot": -0.00973007,
        "meta_mean_motion_ddot": 0,
        "tle_line1": "1 66360U 25254N   25340.33335648 -.00973007  00000+0 -18662-1 0  9999",
        "tle_line2": "2 66360  53.1604 307.1837 0001234  81.1292  38.5782 15.49984171  5898"
      },
      "geometry": {
        "type": "Point",
        "coordinates": [
          147.29490343740125,
          -25.977622881304445
        ]
      }
    }
  ]
}